OBJECT_NAME,OBJECT_ID,EPOCH,MEAN_MOTION,ECCENTRICITY,INCLINATION,RA_OF_ASC_NODE,ARG_OF_PERICENTER,MEAN_ANOMALY,EPHEMERIS_TYPE,CLASSIFICATION_TYPE,NORAD_CAT_ID,ELEMENT_SET_NO,REV_AT_EPOCH,BSTAR,MEAN_MOTION_DOT,MEAN_MOTION_DDOT
SKYSAT-C1,2016-040C,2026-06-29T23:33:46.919520,15.36513930,.000214,96.9554,212.0090,31.0993,329.0379,0,U,41601,999,55983,.27073127E-3,.9575E-4,0
LAPAN-A3,2016-040E,2026-06-30T13:42:18.910944,15.33189728,.00092113,97.1489,177.2776,337.8976,22.1869,0,U,41603,999,55686,.10581941E-3,.3321E-4,0
GAOFEN-3,2016-049A,2026-06-30T13:02:21.687648,14.42217440,.00016454,98.4006,189.1273,93.9780,266.1598,0,U,41727,999,52057,.43869811E-4,.101E-5,0
SKYSAT-C4,2016-058B,2026-06-30T12:17:59.040960,15.48999706,.00024547,96.9164,202.7293,138.5332,221.6106,0,U,41771,999,54753,.29561656E-3,.15921E-3,0
SKYSAT-C5,2016-058C,2026-06-30T01:55:41.235168,15.34650353,.00015978,97.0461,221.1459,201.4188,158.6990,0,U,41772,999,54572,.24184255E-3,.8047E-4,0
SKYSAT-C2,2016-058D,2026-06-30T11:53:58.901568,15.42367359,.0003374,97.0157,203.0914,40.8132,319.3368,0,U,41773,999,54710,.27332968E-3,.11718E-3,0
SKYSAT-C3,2016-058E,2026-06-30T00:45:58.698432,15.53084147,.00013232,96.9001,211.3879,127.9832,232.1542,0,U,41774,999,54810,.39473269E-3,.24636E-3,0
ALSAT-1B,2016-059C,2026-06-30T13:27:47.355264,14.72284635,.00091368,97.7745,189.7472,174.0951,186.0367,0,U,41785,999,52254,.61300281E-4,.34E-5,0
PATHFINDER 1,2016-059E,2026-06-30T10:20:35.471904,14.67677808,.00288891,97.8168,180.1096,161.2255,199.0023,0,U,41787,999,52165,.11372397E-3,.604E-5,0
SCATSAT 1,2016-059H,2026-06-30T04:45:24.686496,14.79554039,.00541006,98.1187,245.0985,204.8394,155.0212,0,U,41790,999,10351,.17117109E-3,.1256E-4,0
GOKTURK 1A,2016-073A,2026-06-30T12:23:08.825568,14.62782566,.0001407,98.1242,75.9813,78.2023,281.9337,0,U,41875,999,51077,.16922908E-4,.4E-6,0
RESOURCESAT-2A,2016-074A,2026-06-30T12:19:52.791744,14.21605505,.00031213,98.7532,254.9092,58.0989,302.0492,0,U,41877,999,49619,.12739815E-3,.235E-5,0
CARTOSAT-2D,2017-008A,2026-06-30T14:16:18.483168,15.19306425,.00050335,97.4104,240.6504,179.8571,180.2666,0,U,41948,999,51961,.20671982E-3,.4297E-4,0
SENTINEL-2B,2017-013A,2026-06-30T13:32:20.328288,14.30820607,.00012162,98.5696,256.1498,89.1281,271.0041,0,U,42063,999,48655,.62078943E-4,.119E-5,0
CARTOSAT-2E,2017-036C,2026-06-30T13:07:03.763776,15.19269718,.00022577,97.4274,241.1285,248.9326,111.1668,0,U,42767,999,50017,.2531859E-3,.5272E-4,0
FORMOSAT-5,2017-049A,2026-06-30T12:01:02.703072,14.50903480,.00122589,98.2253,256.5146,47.1802,313.0421,0,U,42920,999,46860,.5131519E-4,.159E-5,0
SENTINEL-5P,2017-064A,2026-06-30T10:52:39.897984,14.19521106,.00010297,98.7927,123.4903,90.4349,269.6945,0,U,42969,999,45144,.44252324E-4,.49E-6,0
SKYSAT-C11,2017-068A,2026-06-30T09:57:11.874528,15.58573090,.00004601,97.4360,330.8281,142.6287,217.5001,0,U,42987,999,48530,.33325356E-3,.25436E-3,0
SKYSAT-C10,2017-068B,2026-06-30T07:58:31.045728,15.34853086,.00012399,97.4521,318.3095,107.6349,252.5030,0,U,42988,999,48437,.25698606E-3,.8604E-4,0
SKYSAT-C9,2017-068C,2026-06-30T08:23:42.625824,15.41880018,.00094599,97.4443,319.3885,91.7825,268.4506,0,U,42989,999,48478,.27976316E-3,.11811E-3,0
SKYSAT-C8,2017-068D,2026-06-30T08:22:02.480448,15.37226278,.00013225,97.4538,318.1764,94.7632,265.3763,0,U,42990,999,48433,.26547933E-3,.9597E-4,0
SKYSAT-C7,2017-068E,2026-06-30T08:13:26.489280,15.37179736,.00068337,97.4550,319.1605,68.4497,291.7475,0,U,42991,999,48439,.27799299E-3,.10046E-3,0
SKYSAT-C6,2017-068F,2026-06-30T07:43:41.791872,15.34183874,.00052185,97.4585,319.0580,115.4010,244.7773,0,U,42992,999,48433,.26665078E-3,.8746E-4,0
CARTOSAT-2F,2018-004A,2026-06-30T13:53:32.125056,15.19169926,.00013828,97.4785,241.0834,166.2461,193.8811,0,U,43111,999,46936,.28127815E-3,.5847E-4,0
GAOFEN-1 02,2018-031A,2026-06-30T13:57:41.338944,14.76452830,.0002499,98.0526,244.0709,354.5734,5.5448,0,U,43259,999,44467,.71531915E-4,.446E-5,0
GAOFEN-1 03,2018-031B,2026-06-30T13:26:00.907872,14.76444118,.00034222,98.0512,243.9062,51.3773,308.7743,0,U,43260,999,44466,.11111892E-3,.721E-5,0
GAOFEN-1 04,2018-031D,2026-06-30T14:28:44.248224,14.76453418,.00018944,98.0527,244.1418,62.6122,297.5280,0,U,43262,999,44466,.15174314E-3,.1004E-4,0
SENTINEL-3B,2018-039A,2026-06-30T14:01:42.302496,14.26738431,.00008144,98.6244,248.9243,114.0975,246.0291,0,U,43437,999,42603,.63811645E-4,.111E-5,0
GAOFEN-5 01,2018-043A,2026-06-30T11:43:43.199616,14.60614488,.00027833,98.4578,153.3547,59.6365,300.5110,0,U,43461,999,43363,.76568197E-4,.323E-5,0
GAOFEN-6,2018-048A,2026-06-30T13:22:23.344896,14.76367962,.00118058,98.0970,244.2240,122.8551,237.3797,0,U,43484,999,43536,.81960889E-4,.517E-5,0
