SKYSAT-C1               
1 41601U 16040C   26180.98179305  .00009575  00000+0  27073-3 0  9999
2 41601  96.9554 212.0090 0002140  31.0993 329.0379 15.36513930559837
LAPAN-A3                
1 41603U 16040E   26181.57105221  .00003321  00000+0  10582-3 0  9993
2 41603  97.1489 177.2776 0009211 337.8976  22.1869 15.33189728556862
GAOFEN-3                
1 41727U 16049A   26181.54330657  .00000101  00000+0  43870-4 0  9999
2 41727  98.4006 189.1273 0001645  93.9780 266.1598 14.42217440520578
SKYSAT-C4               
1 41771U 16058B   26181.51248890  .00015921  00000+0  29562-3 0  9999
2 41771  96.9164 202.7293 0002454 138.5332 221.6106 15.48999706547532
SKYSAT-C5               
1 41772U 16058C   26181.08033837  .00008047  00000+0  24184-3 0  9991
2 41772  97.0461 221.1459 0001597 201.4188 158.6990 15.34650353545726
SKYSAT-C2               
1 41773U 16058D   26181.49582062  .00011718  00000+0  27333-3 0  9994
2 41773  97.0157 203.0914 0003374  40.8132 319.3368 15.42367359547102
SKYSAT-C3               
1 41774U 16058E   26181.03192938  .00024636  00000+0  39473-3 0  9995
2 41774  96.9001 211.3879 0001323 127.9832 232.1542 15.53084147548107
ALSAT-1B                
1 41785U 16059C   26181.56096476  .00000340  00000+0  61300-4 0  9997
2 41785  97.7745 189.7472 0009136 174.0951 186.0367 14.72284635522541
PATHFINDER 1            
1 41787U 16059E   26181.43096611  .00000604  00000+0  11372-3 0  9992
2 41787  97.8168 180.1096 0028889 161.2255 199.0023 14.67677808521657
SCATSAT 1               
1 41790U 16059H   26181.19820239  .00001256  00000+0  17117-3 0  9997
2 41790  98.1187 245.0985 0054100 204.8394 155.0212 14.79554039103513
GOKTURK 1A              
1 41875U 16073A   26181.51607437  .00000040  00000+0  16923-4 0  9991
2 41875  98.1242  75.9813 0001407  78.2023 281.9337 14.62782566510770
RESOURCESAT-2A          
1 41877U 16074A   26181.51380546  .00000235  00000+0  12740-3 0  9991
2 41877  98.7532 254.9092 0003121  58.0989 302.0492 14.21605505496198
CARTOSAT-2D             
1 41948U 17008A   26181.59465837  .00004297  00000+0  20672-3 0  9998
2 41948  97.4104 240.6504 0005033 179.8571 180.2666 15.19306425519610
SENTINEL-2B             
1 42063U 17013A   26181.56412417  .00000119  00000+0  62079-4 0  9993
2 42063  98.5696 256.1498 0001216  89.1281 271.0041 14.30820607486558
CARTOSAT-2E             
1 42767U 17036C   26181.54657134  .00005272  00000+0  25319-3 0  9994
2 42767  97.4274 241.1285 0002257 248.9326 111.1668 15.19269718500170
FORMOSAT-5              
1 42920U 17049A   26181.50072573  .00000159  00000+0  51315-4 0  9998
2 42920  98.2253 256.5146 0012258  47.1802 313.0421 14.50903480468609
SENTINEL-5P             
1 42969U 17064A   26181.45323956  .00000049  00000+0  44252-4 0  9996
2 42969  98.7927 123.4903 0001029  90.4349 269.6945 14.19521106451446
SKYSAT-C11              
1 42987U 17068A   26181.41472077  .00025436  00000+0  33325-3 0  9990
2 42987  97.4360 330.8281 0000460 142.6287 217.5001 15.58573090485305
SKYSAT-C10              
1 42988U 17068B   26181.33230377  .00008604  00000+0  25699-3 0  9990
2 42988  97.4521 318.3095 0001239 107.6349 252.5030 15.34853086484371
SKYSAT-C9               
1 42989U 17068C   26181.34979891  .00011811  00000+0  27976-3 0  9997
2 42989  97.4443 319.3885 0009459  91.7825 268.4506 15.41880018484789
SKYSAT-C8               
1 42990U 17068D   26181.34863982  .00009597  00000+0  26548-3 0  9994
2 42990  97.4538 318.1764 0001322  94.7632 265.3763 15.37226278484338
SKYSAT-C7               
1 42991U 17068E   26181.34266770  .00010046  00000+0  27799-3 0  9997
2 42991  97.4550 319.1605 0006833  68.4497 291.7475 15.37179736484392
SKYSAT-C6               
1 42992U 17068F   26181.32201148  .00008746  00000+0  26665-3 0  9999
2 42992  97.4585 319.0580 0005218 115.4010 244.7773 15.34183874484330
CARTOSAT-2F             
1 43111U 18004A   26181.57884404  .00005847  00000+0  28128-3 0  9998
2 43111  97.4785 241.0834 0001382 166.2461 193.8811 15.19169926469362
GAOFEN-1 02             
1 43259U 18031A   26181.58172846  .00000446  00000+0  71532-4 0  9990
2 43259  98.0526 244.0709 0002499 354.5734   5.5448 14.76452830444677
GAOFEN-1 03             
1 43260U 18031B   26181.55973273  .00000721  00000+0  11112-3 0  9995
2 43260  98.0512 243.9062 0003422  51.3773 308.7743 14.76444118444661
GAOFEN-1 04             
1 43262U 18031D   26181.60328991  .00001004  00000+0  15174-3 0  9991
2 43262  98.0527 244.1418 0001894  62.6122 297.5280 14.76453418444665
SENTINEL-3B             
1 43437U 18039A   26181.58451739  .00000111  00000+0  63812-4 0  9998
2 43437  98.6244 248.9243 0000814 114.0975 246.0291 14.26738431426036
GAOFEN-5 01             
1 43461U 18043A   26181.48869444  .00000323  00000+0  76568-4 0  9992
2 43461  98.4578 153.3547 0002783  59.6365 300.5110 14.60614488433634
GAOFEN-6                
1 43484U 18048A   26181.55721464  .00000517  00000+0  81961-4 0  9997
2 43484  98.0970 244.2240 0011805 122.8551 237.3797 14.76367962435365
